STARLINK-31025          
1 58634U 23203S   26068.02679154 -.00001194  00000+0 -33876-4 0  9999
2 58634  42.9998  70.4447 0000593 277.9710  82.1075 15.27576528124698
COSMOS 2576             
1 59773U 24092A   26068.82603826  .00015211  00000+0  56283-3 0  9991
2 59773  97.4253 186.0053 0005946 159.7731 200.3745 15.27760963101271
